COSMOS 2425 (716)       
1 29670U 06062A   18173.27579362 -.00000066  00000-0  10000-3 0  9996
2 29670  65.2781 292.3645 0020388 348.5718  27.2909  2.13105018 89426
COSMOS 2426 (717)       
1 29671U 06062B   18172.60610794 -.00000061  00000-0  10000-3 0  9993
2 29671  65.2951 292.4857 0018968 163.2751 274.5348  2.13102782 89410
COSMOS 2433 (720)       
1 32275U 07052A   18172.29371376 -.00000076  00000-0  10000-3 0  9998
2 32275  65.6888  53.2244 0002069 299.5943 234.1554  2.13104510 82911
COSMOS 2432 (719)       
1 32276U 07052B   18173.01274829 -.00000076  00000-0  10000-3 0  9995
2 32276  65.7022  53.2771 0012027 340.6778 336.6622  2.13104024 82922
COSMOS 2434 (721)       
1 32393U 07065A   18173.47602207 -.00000067  00000-0  00000+0 0  9999
2 32393  64.8911 291.3300 0005288 114.2228 134.6078  2.13103000 81640
COSMOS 2436 (723)       
1 32395U 07065C   18172.68702788 -.00000062  00000-0  10000-3 0  9998
2 32395  64.9015 291.4075 0014444   4.9635  49.0982  2.13104416 81565
COSMOS 2456 (730)       
1 36111U 09070A   18173.10471942  .00000098  00000-0  00000+0 0  9992
2 36111  64.1872 170.9338 0006695 300.2855 195.9601  2.13103010 66309
COSMOS 2457 (733)       
1 36112U 09070B   18172.96539832  .00000098  00000-0  00000+0 0  9999
2 36112  64.1690 170.8490 0005747 196.1649 320.0518  2.13101623 66302
COSMOS 2458 (734)       
1 36113U 09070C   18173.10132656  .00000098  00000-0  10000-3 0  9995
2 36113  64.1747 170.8555 0003140 314.1988 353.9545  2.13096662 66302
COSMOS 2459 (731)       
1 36400U 10007A   18172.67698432 -.00000076  00000-0  10000-3 0  9993
2 36400  65.5992  52.2705 0028102 353.8960 332.7977  2.13102303 64642
COSMOS 2461 (735)       
1 36401U 10007B   18172.61913559 -.00000076  00000-0  10000-3 0  9998
2 36401  65.5902  52.2491 0008301  59.1168 133.7899  2.13102334 64647
COSMOS 2460 (732)       
1 36402U 10007C   18172.63996659 -.00000076  00000-0  10000-3 0  9993
2 36402  65.5822  52.2149 0001975  29.3650 220.1359  2.13101688 64647
COSMOS 2464 (736)       
1 37139U 10041C   18172.49331713 -.00000061  00000-0  00000+0 0  9996
2 37139  64.4963 291.1671 0023310  15.2733  67.4569  2.13102745 60710
COSMOS 2471 (701K)      
1 37372U 11009A   18172.63161294 -.00000076  00000-0  00000-0 0  9998
2 37372  65.5786  52.1615 0007112 236.2683 150.8771  2.13107581 56921
COSMOS 2474 (742)       
1 37829U 11055A   18172.74627381  .00000099  00000-0  00000-0 0  9996
2 37829  64.5108 171.6651 0011075 254.1086 185.2796  2.13101963 52294
COSMOS 2476 (744)       
1 37867U 11064A   18172.94424372  .00000099  00000-0  00000-0 0  9995
2 37867  64.4904 171.7206 0020616 245.7691  31.5409  2.13102031 51644
COSMOS 2477 (745)       
1 37868U 11064B   18172.60534351  .00000099  00000-0  00000+0 0  9997
2 37868  64.4992 171.7802 0018481 247.3377 308.8703  2.13101859 51598
COSMOS 2475 (743)       
1 37869U 11064C   18172.74151986  .00000099  00000-0  00000-0 0  9993
2 37869  64.5064 171.7705 0023125 268.7297 348.6599  2.13102133 51604
COSMOS 2485 (747)       
1 39155U 13019A   18173.14487950  .00000099  00000-0  00000+0 0  9992
2 39155  64.6599 171.8246 0020960 241.1604 234.9430  2.13102046 40129
COSMOS 2492 (754)       
1 39620U 14012A   18172.63780241 -.00000077  00000-0  10000-3 0  9997
2 39620  65.4714  52.1009 0015272 335.3060 146.5594  2.13103373 33062
COSMOS 2500 (755)       
1 40001U 14032A   18173.41632973 -.00000076  00000-0  00000+0 0  9993
2 40001  65.4125  52.0431 0004296 205.3629  16.0313  2.13102869 31294
COSMOS 2501 (702K)      
1 40315U 14075A   18172.54091795 -.00000062  00000-0  00000-0 0  9998
2 40315  64.2212 292.3773 0015748 203.9560 227.4312  2.13098699 27686
COSMOS 2514 (751)       
1 41330U 16008A   18172.65689266 -.00000077  00000-0  00000-0 0  9998
2 41330  65.2146  52.1206 0007580 217.7979 321.8728  2.13103294 18448
COSMOS 2516 (753)       
1 41554U 16032A   18172.57292499 -.00000062  00000-0  00000-0 0  9996
2 41554  64.4410 292.2422 0011946 212.0009 154.3701  2.13101701 16057
COSMOS 2522 (752)       
1 42939U 17055A   18172.96915249 -.00000065  00000-0  00000+0 0  9990
2 42939  64.6722 292.1958 0006701 237.8741 298.8941  2.13101847  5810
